#aV2008  3 16  0  0   .00000000      96 DD+AD WGS84 FIT  NGA
## 1471       .00000000   900.00000000 54541  .0000000000000
+   31     1  2  3  4  5  6  8  9 10 11 12 13 14 15 16 17 18
+         19 20 21 22 23 24 25 26 27 28 29 30 31 32  0  0  0
+          0  0  0  0  0  0  0  0  0  0  0  0  0  0  0  0  0
+          0  0  0  0  0  0  0  0  0  0  0  0  0  0  0  0  0
+          0  0  0  0  0  0  0  0  0  0  0  0  0  0  0  0  0
++         0  0  0  0  0  0  0  0  0  0  0  0  0  0  0  0  0
++         0  0  0  0  0  0  0  0  0  0  0  0  0  0  0  0  0
++         0  0  0  0  0  0  0  0  0  0  0  0  0  0  0  0  0
++         0  0  0  0  0  0  0  0  0  0  0  0  0  0  0  0  0
++         0  0  0  0  0  0  0  0  0  0  0  0  0  0  0  0  0
%c cc cc ccc ccc cccc cccc cccc cccc ccccc ccccc ccccc ccccc
%c cc cc ccc ccc cccc cccc cccc cccc ccccc ccccc ccccc ccccc
%f  0.0000000  0.000000000  0.00000000000  0.000000000000000
%f  0.0000000  0.000000000  0.00000000000  0.000000000000000
%i    0    0    0    0      0      0      0      0         0
%i    0    0    0    0      0      0      0      0         0
/*      NGA, ST. LOUIS,MO.                                  
/*   EPHEMERIS COMPUTED FROM  3 DAYS OF DATA                
/* CCCCCCCCCCCCCCCCCCCCCCCCCCCCCCCCCCCCCCCCCCCCCCCCCCCCCCCCC
/* CCCCCCCCCCCCCCCCCCCCCCCCCCCCCCCCCCCCCCCCCCCCCCCCCCCCCCCCC
*  2008  3 16 18 30   .00000000                                                 
P  1 -14454.039756   -180.152842 -22064.927917    192.735845                    
V  1  -1181.484926 -28438.710082    928.740500       .025868                    
P  2  23059.992681 -11343.738036  -6138.273520    182.640470                    
V  2  -4136.138839   7328.109070 -30274.231809       .031336                    
P  3 -12813.712844  11620.490780  19820.109049    201.175188                    
V  3  -6737.376160 -25098.407376  10578.623574       .051717                    
P  4  21869.260338  -1776.707425 -15314.956019    -27.433147                    
V  4 -14479.489524  12753.882690 -21933.456165      -.072326                    
P  5  -5306.007017 -17152.210250 -19879.553295    723.449800                    
V  5  23729.828101   6949.391535 -12353.397261       .116285                    
P  6 -14815.599509 -13993.014467  17209.651858     66.045721                    
V  6   -863.107260 -21684.567959 -18601.886421       .149923                    
P  8  16206.214695   5693.448650  20302.023314   -145.142636                    
V  8 -21346.723037  14469.821629  12476.475646      -.015399                    
P  9  10633.863473 -20300.254723 -13898.036612    115.417252                    
V  9  14337.875744  -8707.775764  24971.951862       .018418                    
P 10  18928.940161  -4738.077516  18034.481213   -308.775006                    
V 10  20148.342555  11256.996744 -17730.347398      -.505323                    
P 11  -5735.023586  21985.550965 -13650.623248     26.818127                    
V 11 -14861.817572   9918.904115  22793.804284      -.000886                    
P 12    591.446448 -15902.518715 -21183.536979   -358.148571                    
V 12  24918.984352  10658.009008  -7190.339773      -.004414                    
P 13   6511.147768  24463.231856   7978.474011    245.702655                    
V 13  -1029.361311  10313.707896 -30330.838408       .019964                    
P 14 -13676.699052 -11638.679764 -19500.583960   -287.249339                    
V 14   -892.868357 -24875.445331  15305.886226       .038630                    
P 15   7860.573123 -20918.334981  14377.598295    -86.063401                    
V 15   4169.052941  17873.204173  23768.032088      -.040485                    
P 16 -21812.241626   1388.540696  15296.696629    131.342501                    
V 16 -16595.272239  -9827.583534 -22698.848827      -.009811                    
P 17  14363.906834  11883.116529 -18948.419353     41.005838                    
V 17    797.367215  24095.282582  15536.224226      -.004739                    
P 18 -16436.783359 -17604.465948  11751.245785   -195.865425                    
V 18  14094.493863   4353.607048  26277.110781       .033178                    
P 19  -9080.714260  20753.693195  13809.994356     24.386661                    
V 19  -2880.405400 -17389.057608  24556.886616       .012402                    
P 20   1887.562943  16887.407542 -20540.384893    118.493182                    
V 20 -24111.332490  -9379.760621  -9935.848786      -.007944                    
P 21  -9399.908051 -12733.738735  21500.949155     69.409213                    
V 21  22460.695536 -14991.209250    344.840697      -.009188                    
P 22 -23982.217749 -11421.347663   -900.397037    209.702764                    
V 22    284.795678  -3493.687761  31374.935008       .005047                    
P 23  -1266.512432  25846.150484  -5479.172134    341.345172                    
V 23  -3233.142114  -6628.111736 -31124.059913       .026133                    
P 24   5469.972645 -18864.153006  18177.391692     78.638661                    
V 24  19860.634188 -11008.627221 -17284.397547       .030261                    
P 25   -683.257494  18531.793157  19442.175677    532.805639                    
V 25 -18690.731495  14856.507363 -14927.731873       .104080                    
P 26   9774.830821 -17649.937690  16492.683623    209.058490                    
V 26   2864.223791  21883.224846  21660.110556       .092433                    
P 27   7677.840072  13471.178737  22227.805964    174.756936                    
V 27 -20812.420767  16591.847115  -3110.437978       .027158                    
P 28  23422.690506  12824.376570   1911.253259    -16.562713                    
V 28  -2811.280754   1333.769660  31466.138863      -.004282                    
P 29  -5223.817204 -25682.642127   4515.151877    -49.095463                    
V 29   2292.182911  -5784.893740 -31033.526671       .029743                    
P 30 -11726.487024 -17553.521514 -16512.318693     67.954890                    
V 30  19580.898251   5853.449351 -20443.873834       .015855                    
P 31 -22142.172572   4152.196158 -13940.605390    -12.982248                    
V 31  13398.547534 -12197.762509 -24443.857533      -.014040                    
P 32 -22331.230911  -1682.213643 -13735.372192    251.016192                    
V 32 -14831.631164 -10786.712889  24828.555935       .078301                    
EOF
